BEIJING 1               
1 28890U 05043A   24360.50944556  .00001173  00000+0  23877-3 0  9993
2 28890  98.2214 122.3076 0015096 163.2106 196.9598 14.62853227 21860
HUANJING 1A (HJ-1A)     
1 33320U 08041A   24360.53880168  .00004511  00000+0  57797-3 0  9996
2 33320  97.6351 358.3477 0021327 104.2576 256.1008 14.81606918878673
HUANJING 1B (HJ-1B)     
1 33321U 08041B   24360.53162804  .00002864  00000+0  36758-3 0  9990
2 33321  97.6267   2.7525 0038351 148.0374 212.3177 14.81449712878691
YAOGAN-4                
1 33446U 08061A   24360.43236973  .00002628  00000+0  34379-3 0  9993
2 33446  97.8942 288.9698 0015642  29.6430 330.5665 14.81180872865853
DEIMOS-1                
1 35681U 09041A   24360.46605469  .00001785  00000+0  27805-3 0  9997
2 35681  97.6838 172.3329 0002534 109.3413 250.8070 14.74095830827480
UK-DMC 2                
1 35683U 09041C   24360.45300843  .00002890  00000+0  44255-3 0  9992
2 35683  97.8047 140.6925 0001211 101.3990 258.7355 14.74425617827189
DMC3-FM1                
1 40715U 15032A   24360.57830803  .00002035  00000+0  24728-3 0  9992
2 40715  97.7219 233.6622 0006606  37.4973 322.6701 14.84547374509966
DMC3-FM2                
1 40716U 15032B   24360.53325742  .00002342  00000+0  28359-3 0  9995
2 40716  97.7275 234.8173 0008504  38.9648 321.2179 14.84544532509953
DMC3-FM3                
1 40717U 15032C   24360.56981373  .00002073  00000+0  25237-3 0  9990
2 40717  97.7327 236.2204 0009858  35.3145 324.8721 14.84448984509966
